CCSDS_OMM_VERS = 2.0
CREATION_DATE  = 
ORIGINATOR     = 

OBJECT_NAME    = SL-3 R/B
OBJECT_ID      = 1982-079B
CENTER_NAME    = EARTH
REF_FRAME      = TEME
TIME_SYSTEM    = UTC
MEAN_ELEMENT_THEORY = SGP/SGP4

EPOCH          = 2026-02-14T15:07:36.299136
MEAN_MOTION    = 15.24443615
ECCENTRICITY   = .002418
INCLINATION    = 81.1440
RA_OF_ASC_NODE = 220.2981
ARG_OF_PERICENTER = 243.6036
MEAN_ANOMALY   = 116.2715

EPHEMERIS_TYPE = 0
CLASSIFICATION_TYPE = U
NORAD_CAT_ID   = 13403
ELEMENT_SET_NO = 999
REV_AT_EPOCH   = 37418
BSTAR          = .24267E-3
MEAN_MOTION_DOT = .6029E-4
MEAN_MOTION_DDOT = 0

CCSDS_OMM_VERS = 2.0
CREATION_DATE  = 
ORIGINATOR     = 

OBJECT_NAME    = SL-14 R/B
OBJECT_ID      = 1982-092B
CENTER_NAME    = EARTH
REF_FRAME      = TEME
TIME_SYSTEM    = UTC
MEAN_ELEMENT_THEORY = SGP/SGP4

EPOCH          = 2026-02-14T10:09:44.282016
MEAN_MOTION    = 14.86641026
ECCENTRICITY   = .0020872
INCLINATION    = 82.5709
RA_OF_ASC_NODE = 163.1545
ARG_OF_PERICENTER = 22.5947
MEAN_ANOMALY   = 42.7009

EPHEMERIS_TYPE = 0
CLASSIFICATION_TYPE = U
NORAD_CAT_ID   = 13553
ELEMENT_SET_NO = 999
REV_AT_EPOCH   = 32547
BSTAR          = .65213E-4
MEAN_MOTION_DOT = .605E-5
MEAN_MOTION_DDOT = 0

CCSDS_OMM_VERS = 2.0
CREATION_DATE  = 
ORIGINATOR     = 

OBJECT_NAME    = SL-3 R/B
OBJECT_ID      = 1983-010B
CENTER_NAME    = EARTH
REF_FRAME      = TEME
TIME_SYSTEM    = UTC
MEAN_ELEMENT_THEORY = SGP/SGP4

EPOCH          = 2026-02-14T09:27:37.445760
MEAN_MOTION    = 15.45501708
ECCENTRICITY   = .0018362
INCLINATION    = 81.1023
RA_OF_ASC_NODE = 30.7882
ARG_OF_PERICENTER = 124.4510
MEAN_ANOMALY   = 235.8473

EPHEMERIS_TYPE = 0
CLASSIFICATION_TYPE = U
NORAD_CAT_ID   = 13819
ELEMENT_SET_NO = 999
REV_AT_EPOCH   = 35434
BSTAR          = .31826E-3
MEAN_MOTION_DOT = .15399E-3
MEAN_MOTION_DDOT = 0

CCSDS_OMM_VERS = 2.0
CREATION_DATE  = 
ORIGINATOR     = 

OBJECT_NAME    = SL-3 R/B
OBJECT_ID      = 1983-075B
CENTER_NAME    = EARTH
REF_FRAME      = TEME
TIME_SYSTEM    = UTC
MEAN_ELEMENT_THEORY = SGP/SGP4

EPOCH          = 2026-02-14T14:12:12.161088
MEAN_MOTION    = 15.37816476
ECCENTRICITY   = .0020366
INCLINATION    = 97.6128
RA_OF_ASC_NODE = 49.3083
ARG_OF_PERICENTER = 316.6814
MEAN_ANOMALY   = 43.2828

EPHEMERIS_TYPE = 0
CLASSIFICATION_TYPE = U
NORAD_CAT_ID   = 14208
ELEMENT_SET_NO = 999
REV_AT_EPOCH   = 32660
BSTAR          = .27078E-3
MEAN_MOTION_DOT = .10045E-3
MEAN_MOTION_DDOT = 0

CCSDS_OMM_VERS = 2.0
CREATION_DATE  = 
ORIGINATOR     = 

OBJECT_NAME    = COSMOS 1536
OBJECT_ID      = 1984-013A
CENTER_NAME    = EARTH
REF_FRAME      = TEME
TIME_SYSTEM    = UTC
MEAN_ELEMENT_THEORY = SGP/SGP4

EPOCH          = 2026-02-14T14:28:05.217888
MEAN_MOTION    = 15.23508628
ECCENTRICITY   = .0014312
INCLINATION    = 82.5468
RA_OF_ASC_NODE = 130.7903
ARG_OF_PERICENTER = 9.9426
MEAN_ANOMALY   = 350.2091

EPHEMERIS_TYPE = 0
CLASSIFICATION_TYPE = U
NORAD_CAT_ID   = 14699
ELEMENT_SET_NO = 999
REV_AT_EPOCH   = 26910
BSTAR          = .20412E-3
MEAN_MOTION_DOT = .4917E-4
MEAN_MOTION_DDOT = 0

CCSDS_OMM_VERS = 2.0
CREATION_DATE  = 
ORIGINATOR     = 

OBJECT_NAME    = SL-14 R/B
OBJECT_ID      = 1984-027B
CENTER_NAME    = EARTH
REF_FRAME      = TEME
TIME_SYSTEM    = UTC
MEAN_ELEMENT_THEORY = SGP/SGP4

EPOCH          = 2026-02-14T14:18:34.124256
MEAN_MOTION    = 14.85952911
ECCENTRICITY   = .0019227
INCLINATION    = 82.5390
RA_OF_ASC_NODE = 266.6772
ARG_OF_PERICENTER = 52.9787
MEAN_ANOMALY   = 307.3184

EPHEMERIS_TYPE = 0
CLASSIFICATION_TYPE = U
NORAD_CAT_ID   = 14820
ELEMENT_SET_NO = 999
REV_AT_EPOCH   = 24420
BSTAR          = .47134E-4
MEAN_MOTION_DOT = .437E-5
MEAN_MOTION_DDOT = 0

CCSDS_OMM_VERS = 2.0
CREATION_DATE  = 
ORIGINATOR     = 

OBJECT_NAME    = SL-8 R/B
OBJECT_ID      = 1985-006B
CENTER_NAME    = EARTH
REF_FRAME      = TEME
TIME_SYSTEM    = UTC
MEAN_ELEMENT_THEORY = SGP/SGP4

EPOCH          = 2026-02-14T05:30:33.846624
MEAN_MOTION    = 14.37771662
ECCENTRICITY   = .0019299
INCLINATION    = 74.0463
RA_OF_ASC_NODE = 304.3180
ARG_OF_PERICENTER = 226.8184
MEAN_ANOMALY   = 297.8546

EPHEMERIS_TYPE = 0
CLASSIFICATION_TYPE = U
NORAD_CAT_ID   = 15483
ELEMENT_SET_NO = 999
REV_AT_EPOCH   = 15065
BSTAR          = .85225E-4
MEAN_MOTION_DOT = .231E-5
MEAN_MOTION_DDOT = 0

CCSDS_OMM_VERS = 2.0
CREATION_DATE  = 
ORIGINATOR     = 

OBJECT_NAME    = SL-12 R/B(2)
OBJECT_ID      = 1985-042D
CENTER_NAME    = EARTH
REF_FRAME      = TEME
TIME_SYSTEM    = UTC
MEAN_ELEMENT_THEORY = SGP/SGP4

EPOCH          = 2026-02-14T15:05:31.915104
MEAN_MOTION    = 14.21975964
ECCENTRICITY   = .0034539
INCLINATION    = 71.1086
RA_OF_ASC_NODE = 136.4505
ARG_OF_PERICENTER = 165.2341
MEAN_ANOMALY   = 297.4552

EPHEMERIS_TYPE = 0
CLASSIFICATION_TYPE = U
NORAD_CAT_ID   = 15772
ELEMENT_SET_NO = 999
REV_AT_EPOCH   = 11111
BSTAR          = .32334E-4
MEAN_MOTION_DOT = .24E-6
MEAN_MOTION_DDOT = 0

CCSDS_OMM_VERS = 2.0
CREATION_DATE  = 
ORIGINATOR     = 

OBJECT_NAME    = SL-14 R/B
OBJECT_ID      = 1985-069B
CENTER_NAME    = EARTH
REF_FRAME      = TEME
TIME_SYSTEM    = UTC
MEAN_ELEMENT_THEORY = SGP/SGP4

EPOCH          = 2026-02-14T10:52:50.199456
MEAN_MOTION    = 14.86405244
ECCENTRICITY   = .0017144
INCLINATION    = 82.5243
RA_OF_ASC_NODE = 46.7860
ARG_OF_PERICENTER = 269.6962
MEAN_ANOMALY   = 90.2290

EPHEMERIS_TYPE = 0
CLASSIFICATION_TYPE = U
NORAD_CAT_ID   = 15945
ELEMENT_SET_NO = 999
REV_AT_EPOCH   = 16938
BSTAR          = .65155E-4
MEAN_MOTION_DOT = .6E-5
MEAN_MOTION_DDOT = 0

CCSDS_OMM_VERS = 2.0
CREATION_DATE  = 
ORIGINATOR     = 

OBJECT_NAME    = SL-16 R/B
OBJECT_ID      = 1985-097B
CENTER_NAME    = EARTH
REF_FRAME      = TEME
TIME_SYSTEM    = UTC
MEAN_ELEMENT_THEORY = SGP/SGP4

EPOCH          = 2026-02-14T14:50:38.238432
MEAN_MOTION    = 14.16594902
ECCENTRICITY   = .0009716
INCLINATION    = 71.0023
RA_OF_ASC_NODE = 189.1210
ARG_OF_PERICENTER = 286.6285
MEAN_ANOMALY   = 158.5936

EPHEMERIS_TYPE = 0
CLASSIFICATION_TYPE = U
NORAD_CAT_ID   = 16182
ELEMENT_SET_NO = 999
REV_AT_EPOCH   = 8396
BSTAR          = -.83377E-4
MEAN_MOTION_DOT = -.214E-5
MEAN_MOTION_DDOT = 0

CCSDS_OMM_VERS = 2.0
CREATION_DATE  = 
ORIGINATOR     = 

OBJECT_NAME    = SL-14 R/B
OBJECT_ID      = 1986-006B
CENTER_NAME    = EARTH
REF_FRAME      = TEME
TIME_SYSTEM    = UTC
MEAN_ELEMENT_THEORY = SGP/SGP4

EPOCH          = 2026-02-14T15:19:20.040096
MEAN_MOTION    = 14.86784042
ECCENTRICITY   = .0076432
INCLINATION    = 82.5257
RA_OF_ASC_NODE = 281.4354
ARG_OF_PERICENTER = 350.3339
MEAN_ANOMALY   = 9.6402

EPHEMERIS_TYPE = 0
CLASSIFICATION_TYPE = U
NORAD_CAT_ID   = 16496
ELEMENT_SET_NO = 999
REV_AT_EPOCH   = 14578
BSTAR          = .70649E-4
MEAN_MOTION_DOT = .69E-5
MEAN_MOTION_DDOT = 0

CCSDS_OMM_VERS = 2.0
CREATION_DATE  = 
ORIGINATOR     = 

OBJECT_NAME    = COSMOS 1743
OBJECT_ID      = 1986-034A
CENTER_NAME    = EARTH
REF_FRAME      = TEME
TIME_SYSTEM    = UTC
MEAN_ELEMENT_THEORY = SGP/SGP4

EPOCH          = 2026-02-14T15:26:55.677408
MEAN_MOTION    = 15.56849502
ECCENTRICITY   = .000462
INCLINATION    = 82.5319
RA_OF_ASC_NODE = 97.9864
ARG_OF_PERICENTER = 34.4997
MEAN_ANOMALY   = 325.6556

EPHEMERIS_TYPE = 0
CLASSIFICATION_TYPE = U
NORAD_CAT_ID   = 16719
ELEMENT_SET_NO = 999
REV_AT_EPOCH   = 17666
BSTAR          = .3931E-3
MEAN_MOTION_DOT = .28304E-3
MEAN_MOTION_DDOT = 0

