SL-3 R/B                
1 13403U 82079B   26045.63028124  .00006029  00000+0  24267-3 0  9990
2 13403  81.1440 220.2981 0024180 243.6036 116.2715 15.24443615374185
SL-14 R/B               
1 13553U 82092B   26045.42342919  .00000605  00000+0  65213-4 0  9990
2 13553  82.5709 163.1545 0020872  22.5947  42.7009 14.86641026325474
SL-3 R/B                
1 13819U 83010B   26045.39418340  .00015399  00000+0  31826-3 0  9992
2 13819  81.1023  30.7882 0018362 124.4510 235.8473 15.45501708354341
SL-3 R/B                
1 14208U 83075B   26045.59180742  .00010045  00000+0  27078-3 0  9997
2 14208  97.6128  49.3083 0020366 316.6814  43.2828 15.37816476326605
COSMOS 1536             
1 14699U 84013A   26045.60283817  .00004917  00000+0  20412-3 0  9999
2 14699  82.5468 130.7903 0014312   9.9426 350.2091 15.23508628269106
SL-14 R/B               
1 14820U 84027B   26045.59622829  .00000437  00000+0  47134-4 0  9992
2 14820  82.5390 266.6772 0019227  52.9787 307.3184 14.85952911244202
SL-8 R/B                
1 15483U 85006B   26045.22955841  .00000231  00000+0  85225-4 0  9994
2 15483  74.0463 304.3180 0019299 226.8184 297.8546 14.37771662150659
SL-12 R/B(2)            
1 15772U 85042D   26045.62884161  .00000024  00000+0  32334-4 0  9998
2 15772  71.1086 136.4505 0034539 165.2341 297.4552 14.21975964111114
SL-14 R/B               
1 15945U 85069B   26045.45335879  .00000600  00000+0  65155-4 0  9994
2 15945  82.5243  46.7860 0017144 269.6962  90.2290 14.86405244169385
SL-16 R/B               
1 16182U 85097B   26045.61849813 -.00000214  00000+0 -83377-4 0  9994
2 16182  71.0023 189.1210 0009716 286.6285 158.5936 14.16594902 83969
SL-14 R/B               
1 16496U 86006B   26045.63842639  .00000690  00000+0  70649-4 0  9998
2 16496  82.5257 281.4354 0076432 350.3339   9.6402 14.86784042145782
COSMOS 1743             
1 16719U 86034A   26045.64369997  .00028304  00000+0  39310-3 0  9990
2 16719  82.5319  97.9864 0004620  34.4997 325.6556 15.56849502176668
